[
  {
    "OBJECT_NAME": "ISS (ZARYA)",
    "OBJECT_ID": "1998-067A",
    "EPOCH": "2025-06-14T19:31:35.967072",
    "MEAN_MOTION": 15.50200772,
    "ECCENTRICITY": 0.0001501,
    "INCLINATION": 51.6371,
    "RA_OF_ASC_NODE": 318.8403,
    "ARG_OF_PERICENTER": 246.5954,
    "MEAN_ANOMALY": 113.4877,
    "EPHEMERIS_TYPE": 0,
    "CLASSIFICATION_TYPE": "U",
    "NORAD_CAT_ID": 25544,
    "ELEMENT_SET_NO": 999,
    "REV_AT_EPOCH": 51479,
    "BSTAR": 0.00018747,
    "MEAN_MOTION_DOT": 0.00010333,
    "MEAN_MOTION_DDOT": 0
  },
  {
    "OBJECT_NAME": "CSS (TIANHE)",
    "OBJECT_ID": "2021-035A",
    "EPOCH": "2025-06-14T18:12:25.642368",
    "MEAN_MOTION": 15.58824286,
    "ECCENTRICITY": 0.000373,
    "INCLINATION": 41.4649,
    "RA_OF_ASC_NODE": 35.3991,
    "ARG_OF_PERICENTER": 91.0143,
    "MEAN_ANOMALY": 269.1122,
    "EPHEMERIS_TYPE": 0,
    "CLASSIFICATION_TYPE": "U",
    "NORAD_CAT_ID": 48274,
    "ELEMENT_SET_NO": 999,
    "REV_AT_EPOCH": 23577,
    "BSTAR": 0.00032383,
    "MEAN_MOTION_DOT": 0.0002551,
    "MEAN_MOTION_DDOT": 0
  },
  {
    "OBJECT_NAME": "ISS (NAUKA)",
    "OBJECT_ID": "2021-066A",
    "EPOCH": "2025-06-14T11:47:26.983392",
    "MEAN_MOTION": 15.50192868,
    "ECCENTRICITY": 0.0001506,
    "INCLINATION": 51.6369,
    "RA_OF_ASC_NODE": 320.4376,
    "ARG_OF_PERICENTER": 243.8803,
    "MEAN_ANOMALY": 116.2031,
    "EPHEMERIS_TYPE": 0,
    "CLASSIFICATION_TYPE": "U",
    "NORAD_CAT_ID": 49044,
    "ELEMENT_SET_NO": 999,
    "REV_AT_EPOCH": 22073,
    "BSTAR": 0.00019812,
    "MEAN_MOTION_DOT": 0.00010944,
    "MEAN_MOTION_DDOT": 0
  },
  {
    "OBJECT_NAME": "CSS (WENTIAN)",
    "OBJECT_ID": "2022-085A",
    "EPOCH": "2025-06-14T15:07:54.777504",
    "MEAN_MOTION": 15.58817695,
    "ECCENTRICITY": 0.0003738,
    "INCLINATION": 41.4649,
    "RA_OF_ASC_NODE": 36.1767,
    "ARG_OF_PERICENTER": 89.7022,
    "MEAN_ANOMALY": 270.4245,
    "EPHEMERIS_TYPE": 0,
    "CLASSIFICATION_TYPE": "U",
    "NORAD_CAT_ID": 53239,
    "ELEMENT_SET_NO": 999,
    "REV_AT_EPOCH": 1107,
    "BSTAR": 0.00034777,
    "MEAN_MOTION_DOT": 0.0002742,
    "MEAN_MOTION_DDOT": 0
  },
  {
    "OBJECT_NAME": "CSS (MENGTIAN)",
    "OBJECT_ID": "2022-143A",
    "EPOCH": "2025-06-14T15:07:54.777504",
    "MEAN_MOTION": 15.58817695,
    "ECCENTRICITY": 0.0003738,
    "INCLINATION": 41.4649,
    "RA_OF_ASC_NODE": 36.1767,
    "ARG_OF_PERICENTER": 89.7022,
    "MEAN_ANOMALY": 270.4245,
    "EPHEMERIS_TYPE": 0,
    "CLASSIFICATION_TYPE": "U",
    "NORAD_CAT_ID": 54216,
    "ELEMENT_SET_NO": 999,
    "REV_AT_EPOCH": 14870,
    "BSTAR": 0.00034777,
    "MEAN_MOTION_DOT": 0.0002742,
    "MEAN_MOTION_DDOT": 0
  },
  {
    "OBJECT_NAME": "TIANZHOU-8",
    "OBJECT_ID": "2024-211A",
    "EPOCH": "2025-06-14T15:07:54.777504",
    "MEAN_MOTION": 15.58817695,
    "ECCENTRICITY": 0.0003738,
    "INCLINATION": 41.4649,
    "RA_OF_ASC_NODE": 36.1767,
    "ARG_OF_PERICENTER": 89.7022,
    "MEAN_ANOMALY": 270.4245,
    "EPHEMERIS_TYPE": 0,
    "CLASSIFICATION_TYPE": "U",
    "NORAD_CAT_ID": 61983,
    "ELEMENT_SET_NO": 999,
    "REV_AT_EPOCH": 3159,
    "BSTAR": 0.00034777,
    "MEAN_MOTION_DOT": 0.0002742,
    "MEAN_MOTION_DDOT": 0
  },
  {
    "OBJECT_NAME": "PROGRESS-MS 29",
    "OBJECT_ID": "2024-215A",
    "EPOCH": "2025-06-14T11:47:26.983392",
    "MEAN_MOTION": 15.50192868,
    "ECCENTRICITY": 0.0001506,
    "INCLINATION": 51.6369,
    "RA_OF_ASC_NODE": 320.4376,
    "ARG_OF_PERICENTER": 243.8803,
    "MEAN_ANOMALY": 116.2031,
    "EPHEMERIS_TYPE": 0,
    "CLASSIFICATION_TYPE": "U",
    "NORAD_CAT_ID": 62030,
    "ELEMENT_SET_NO": 999,
    "REV_AT_EPOCH": 3252,
    "BSTAR": 0.00019812,
    "MEAN_MOTION_DOT": 0.00010944,
    "MEAN_MOTION_DDOT": 0
  },
  {
    "OBJECT_NAME": "PROGRESS-MS 30",
    "OBJECT_ID": "2025-041B",
    "EPOCH": "2025-06-14T11:47:26.983392",
    "MEAN_MOTION": 15.50192868,
    "ECCENTRICITY": 0.0001506,
    "INCLINATION": 51.6369,
    "RA_OF_ASC_NODE": 320.4376,
    "ARG_OF_PERICENTER": 243.8803,
    "MEAN_ANOMALY": 116.2031,
    "EPHEMERIS_TYPE": 0,
    "CLASSIFICATION_TYPE": "U",
    "NORAD_CAT_ID": 63129,
    "ELEMENT_SET_NO": 999,
    "REV_AT_EPOCH": 1667,
    "BSTAR": 0.00019812,
    "MEAN_MOTION_DOT": 0.00010944,
    "MEAN_MOTION_DDOT": 0
  },
  {
    "OBJECT_NAME": "CREW DRAGON 10",
    "OBJECT_ID": "2025-049A",
    "EPOCH": "2025-06-14T11:47:26.983392",
    "MEAN_MOTION": 15.50192868,
    "ECCENTRICITY": 0.0001506,
    "INCLINATION": 51.6369,
    "RA_OF_ASC_NODE": 320.4376,
    "ARG_OF_PERICENTER": 243.8803,
    "MEAN_ANOMALY": 116.2031,
    "EPHEMERIS_TYPE": 0,
    "CLASSIFICATION_TYPE": "U",
    "NORAD_CAT_ID": 63204,
    "ELEMENT_SET_NO": 999,
    "REV_AT_EPOCH": 1410,
    "BSTAR": 0.00019812,
    "MEAN_MOTION_DOT": 0.00010944,
    "MEAN_MOTION_DDOT": 0
  },
  {
    "OBJECT_NAME": "SOYUZ-MS 27",
    "OBJECT_ID": "2025-072A",
    "EPOCH": "2025-06-14T11:47:26.983392",
    "MEAN_MOTION": 15.50192868,
    "ECCENTRICITY": 0.0001506,
    "INCLINATION": 51.6369,
    "RA_OF_ASC_NODE": 320.4376,
    "ARG_OF_PERICENTER": 243.8803,
    "MEAN_ANOMALY": 116.2031,
    "EPHEMERIS_TYPE": 0,
    "CLASSIFICATION_TYPE": "U",
    "NORAD_CAT_ID": 63520,
    "ELEMENT_SET_NO": 999,
    "REV_AT_EPOCH": 996,
    "BSTAR": 0.00019812,
    "MEAN_MOTION_DOT": 0.00010944,
    "MEAN_MOTION_DDOT": 0
  },
  {
    "OBJECT_NAME": "SHENZHOU-20 (SZ-20)",
    "OBJECT_ID": "2025-082A",
    "EPOCH": "2025-06-14T15:07:54.777504",
    "MEAN_MOTION": 15.58817695,
    "ECCENTRICITY": 0.0003738,
    "INCLINATION": 41.4649,
    "RA_OF_ASC_NODE": 36.1767,
    "ARG_OF_PERICENTER": 89.7022,
    "MEAN_ANOMALY": 270.4245,
    "EPHEMERIS_TYPE": 0,
    "CLASSIFICATION_TYPE": "U",
    "NORAD_CAT_ID": 63632,
    "ELEMENT_SET_NO": 999,
    "REV_AT_EPOCH": 23204,
    "BSTAR": 0.00034777,
    "MEAN_MOTION_DOT": 0.0002742,
    "MEAN_MOTION_DDOT": 0
  }
]