ISS (ZARYA)             
1 25544U 98067A   25165.81361073  .00010333  00000+0  18747-3 0  9997
2 25544  51.6371 318.8403 0001501 246.5954 113.4877 15.50200772514790
CSS (TIANHE)            
1 48274U 21035A   25165.75863012  .00025510  00000+0  32383-3 0  9991
2 48274  41.4649  35.3991 0003730  91.0143 269.1122 15.58824286235772
ISS (NAUKA)             
1 49044U 21066A   25165.49128453  .00010944  00000+0  19812-3 0  9992
2 49044  51.6369 320.4376 0001506 243.8803 116.2031 15.50192868220731
CSS (WENTIAN)           
1 53239U 22085A   25165.63049511  .00027420  00000+0  34777-3 0  9992
2 53239  41.4649  36.1767 0003738  89.7022 270.4245 15.58817695 11079
CSS (MENGTIAN)          
1 54216U 22143A   25165.63049511  .00027420  00000+0  34777-3 0  9993
2 54216  41.4649  36.1767 0003738  89.7022 270.4245 15.58817695148706
TIANZHOU-8              
1 61983U 24211A   25165.63049511  .00027420  00000+0  34777-3 0  9990
2 61983  41.4649  36.1767 0003738  89.7022 270.4245 15.58817695 31593
PROGRESS-MS 29          
1 62030U 24215A   25165.49128453  .00010944  00000+0  19812-3 0  9991
2 62030  51.6369 320.4376 0001506 243.8803 116.2031 15.50192868 32529
PROGRESS-MS 30          
1 63129U 25041B   25165.49128453  .00010944  00000+0  19812-3 0  9999
2 63129  51.6369 320.4376 0001506 243.8803 116.2031 15.50192868 16677
CREW DRAGON 10          
1 63204U 25049A   25165.49128453  .00010944  00000+0  19812-3 0  9991
2 63204  51.6369 320.4376 0001506 243.8803 116.2031 15.50192868 14107
SOYUZ-MS 27             
1 63520U 25072A   25165.49128453  .00010944  00000+0  19812-3 0  9998
2 63520  51.6369 320.4376 0001506 243.8803 116.2031 15.50192868  9966
SHENZHOU-20 (SZ-20)     
1 63632U 25082A   25165.63049511  .00027420  00000+0  34777-3 0  9990
2 63632  41.4649  36.1767 0003738  89.7022 270.4245 15.58817695232049
